NORAD_CAT_ID,OBJECT_NAME,OBJECT_TYPE,EPOCH,MEAN_MOTION,ECCENTRICITY,INCLINATION,RA_OF_ASC_NODE,ARG_OF_PERICENTER,MEAN_ANOMALY,BSTAR,MEAN_MOTION_DOT,MEAN_MOTION_DDOT,TLE_LINE0,TLE_LINE1,TLE_LINE2,SEMIMAJOR_AXIS,PERIOD,APOGEE,PERIGEE,DECAYED
53155.0,STARLINK-4088,PAYLOAD,2023-09-18 06:36:08,15.08824966,0.0001656,53.2165,259.7062,97.5072,262.6109,0.00044338,6.773e-05,0.0,0 STARLINK-4088,1 53155U 22083Z   23261.27509376  .00006773  00000-0  44338-3 0  9995,2 53155  53.2165 259.7062 0001656  97.5072 262.6109 15.08824966 65604,6917.926,95.439,540.937,538.646,0.0
53155.0,STARLINK-4088,PAYLOAD,2023-09-18 11:22:17,15.08834699,0.0001626,53.2165,258.8139,98.2995,261.8181,0.00039085,5.937e-05,0.0,0 STARLINK-4088,1 53155U 22083Z   23261.47380969  .00005937  00000-0  39085-3 0  9996,2 53155  53.2165 258.8139 0001626  98.2995 261.8181 15.08834699 65647,6917.897,95.438,540.886,538.637,0.0
53155.0,STARLINK-4088,PAYLOAD,2023-09-20 03:06:55,15.08836324,0.0001933,53.2167,251.3799,111.9652,248.1546,-3.5145e-05,-8.47e-06,0.0,0 STARLINK-4088,1 53155U 22083Z   23263.12981196 -.00000847  00000-0 -35145-4 0  9990,2 53155  53.2167 251.3799 0001933 111.9652 248.1546 15.08836324 65889,6917.892,95.438,541.094,538.419,0.0
53155.0,STARLINK-4088,PAYLOAD,2023-09-20 07:53:05,15.08834563,0.0001613,53.2168,250.4881,93.9865,266.1312,-6.2073e-05,-1.276e-05,0.0,0 STARLINK-4088,1 53155U 22083Z   23263.32853300 -.00001276  00000-0 -62073-4 0  9994,2 53155  53.2168 250.4881 0001613  93.9865 266.1312 15.08834563 65921,6917.897,95.438,540.878,538.646,0.0
53155.0,STARLINK-4088,PAYLOAD,2023-09-20 15:50:01,15.08828768,0.0001765,53.218,249.0041,96.9143,263.205,-0.00011571,-2.129e-05,0.0,0 STARLINK-4088,1 53155U 22083Z   23263.65973822 -.00002129  00000-0 -11571-3 0  9996,2 53155  53.2180 249.0041 0001765  96.9143 263.2050 15.08828768 65968,6917.915,95.438,541.001,538.559,0.0
53155.0,STARLINK-4088,PAYLOAD,2023-09-21 09:19:16,15.08837542,0.0001514,53.2174,245.7299,91.9456,268.1709,-2.1713e-05,-6.34e-06,0.0,0 STARLINK-4088,1 53155U 22083Z   23264.38838012 -.00000634  00000-0 -21713-4 0  9997,2 53155  53.2174 245.7299 0001514  91.9456 268.1709 15.08837542 66071,6917.888,95.438,540.8,538.706,0.0
53155.0,STARLINK-4088,PAYLOAD,2023-09-21 15:40:48,15.0884164,0.0001538,53.2177,244.5406,91.9635,268.1533,7.023e-06,-1.76e-06,0.0,0 STARLINK-4088,1 53155U 22083Z   23264.65333705 -.00000176  00000-0  70230-5 0  9995,2 53155  53.2177 244.5406 0001538  91.9635 268.1533 15.08841640 66121,6917.875,95.437,540.804,538.676,0.0
53155.0,STARLINK-4088,PAYLOAD,2023-09-22 07:34:39,15.08844151,0.0001564,53.2178,241.5669,88.3394,271.7777,0.00022716,3.33e-05,0.0,0 STARLINK-4088,1 53155U 22083Z   23265.31573511  .00003330  00000-0  22716-3 0  9998,2 53155  53.2178 241.5669 0001564  88.3394 271.7777 15.08844151 66211,6917.868,95.437,540.815,538.651,0.0
53155.0,STARLINK-4088,PAYLOAD,2023-09-22 10:45:25,15.08848238,0.000156,53.2177,240.9717,87.7874,272.3297,0.00026214,3.887e-05,0.0,0 STARLINK-4088,1 53155U 22083Z   23265.44821246  .00003887  00000-0  26214-3 0  9997,2 53155  53.2177 240.9717 0001560  87.7874 272.3297 15.08848238 66246,6917.855,95.437,540.799,538.641,0.0
53155.0,STARLINK-4088,PAYLOAD,2023-09-22 15:31:35,15.08841778,0.0001513,53.2166,240.0766,87.8964,272.2201,0.00017119,2.438e-05,0.0,0 STARLINK-4088,1 53155U 22083Z   23265.64693749  .00002438  00000-0  17119-3 0  9999,2 53155  53.2166 240.0766 0001513  87.8964 272.2201 15.08841778 66277,6917.875,95.437,540.787,538.693,0.0
53155.0,STARLINK-4088,PAYLOAD,2023-09-23 07:25:26,15.08857291,0.0001508,53.2164,237.1057,93.8256,266.2908,0.00032752,4.931e-05,0.0,0 STARLINK-4088,1 53155U 22083Z   23266.30933039  .00004931  00000-0  32752-3 0  9992,2 53155  53.2164 237.1057 0001508  93.8256 266.2908 15.08857291 66364,6917.828,95.436,540.736,538.649,0.0
53155.0,STARLINK-4088,PAYLOAD,2023-09-23 15:22:22,15.08842554,0.0001737,53.2165,235.6192,87.1865,272.9325,5.2776e-05,5.52e-06,0.0,0 STARLINK-4088,1 53155U 22083Z   23266.64053657  .00000552  00000-0  52776-4 0  9992,2 53155  53.2165 235.6192 0001737  87.1865 272.9325 15.08842554 66413,6917.873,95.437,540.939,538.536,0.0
53155.0,STARLINK-4088,PAYLOAD,2023-09-24 07:16:13,15.08844479,0.0001594,53.2156,232.6447,92.7691,267.3484,0.00014381,2.002e-05,0.0,0 STARLINK-4088,1 53155U 22083Z   23267.30293467  .00002002  00000-0  14381-3 0  9992,2 53155  53.2156 232.6447 0001594  92.7691 267.3484 15.08844479 66527,6917.867,95.437,540.834,538.629,0.0
53155.0,STARLINK-4088,PAYLOAD,2023-09-25 02:20:51,15.0884691,0.0001376,53.217,229.075,93.5872,266.5277,0.00029936,4.48e-05,0.0,0 STARLINK-4088,1 53155U 22083Z   23268.09781467  .00004480  00000-0  29936-3 0  9995,2 53155  53.2170 229.0750 0001376  93.5872 266.5277 15.08846910 66633,6917.859,95.437,540.676,538.772,0.0
53155.0,STARLINK-4088,PAYLOAD,2023-09-25 07:07:00,15.08861907,0.0001509,53.2157,228.1827,105.9111,254.2047,0.00068859,0.00010694,0.0,0 STARLINK-4088,1 53155U 22083Z   23268.29652997  .00010694  00000-0  68859-3 0  9993,2 53155  53.2157 228.1827 0001509 105.9111 254.2047 15.08861907 66660,6917.813,95.436,540.722,538.635,0.0
53155.0,STARLINK-4088,PAYLOAD,2023-09-25 15:03:55,15.08853442,0.0001539,53.2157,226.6942,110.9693,249.1464,0.00045917,7.03e-05,0.0,0 STARLINK-4088,1 53155U 22083Z   23268.62773073  .00007030  00000-0  45917-3 0  9999,2 53155  53.2157 226.6942 0001539 110.9693 249.1464 15.08853442 66712,6917.839,95.437,540.769,538.64,0.0
53155.0,STARLINK-4088,PAYLOAD,2023-09-26 03:47:00,15.08860292,0.000158,53.2168,224.3155,109.9301,250.1861,0.00052163,8.028e-05,0.0,0 STARLINK-4088,1 53155U 22083Z   23269.15764406  .00008028  00000-0  52163-3 0  9997,2 53155  53.2168 224.3155 0001580 109.9301 250.1861 15.08860292 66809,6917.818,95.436,540.776,538.59,0.0
53155.0,STARLINK-4088,PAYLOAD,2023-09-26 21:16:15,15.08838387,0.0001613,53.2161,221.0435,120.6748,239.4403,-9.9995e-05,-1.879e-05,0.0,0 STARLINK-4088,1 53155U 22083Z   23269.88628997 -.00001879  00000-0 -99995-4 0  9995,2 53155  53.2161 221.0435 0001613 120.6748 239.4403 15.08838387 66913,6917.885,95.438,540.866,538.634,0.0
53155.0,STARLINK-4088,PAYLOAD,2023-09-27 02:02:24,15.0883642,0.0001522,53.216,220.1516,123.7032,236.4106,-0.00010921,-2.025e-05,0.0,0 STARLINK-4088,1 53155U 22083Z   23270.08501153 -.00002025  00000-0 -10921-3 0  9998,2 53155  53.2160 220.1516 0001522 123.7032 236.4106 15.08836420 66936,6917.891,95.438,540.809,538.703,0.0
53155.0,STARLINK-4088,PAYLOAD,2023-09-27 03:37:48,15.08837175,0.0001022,53.2158,219.8554,96.9905,263.1203,-5.9402e-05,-1.233e-05,0.0,0 STARLINK-4088,1 53155U 22083Z   23270.15125270 -.00001233  00000-0 -59402-4 0  9996,2 53155  53.2158 219.8554 0001022  96.9905 263.1203 15.08837175 66950,6917.889,95.438,540.461,539.047,0.0
53155.0,STARLINK-4088,PAYLOAD,2023-09-27 13:10:07,15.08830928,0.0001002,53.2158,218.075,97.0277,263.0829,-0.0001221,-2.23e-05,0.0,0 STARLINK-4088,1 53155U 22083Z   23270.54869707 -.00002230  00000-0 -12210-3 0  9992,2 53155  53.2158 218.0750 0001002  97.0277 263.0829 15.08830928 67000,6917.908,95.438,540.466,539.08,0.0
53155.0,STARLINK-4088,PAYLOAD,2023-09-28 01:53:13,15.08825163,0.0001329,53.2181,215.7004,97.4387,262.6757,-0.00011604,-2.133e-05,0.0,0 STARLINK-4088,1 53155U 22083Z   23271.07862685 -.00002133  00000-0 -11604-3 0  9997,2 53155  53.2181 215.7004 0001329  97.4387 262.6757 15.08825163 67088,6917.926,95.438,540.71,538.871,0.0
53155.0,STARLINK-4088,PAYLOAD,2023-09-28 19:22:28,15.08833286,0.0001144,53.2198,212.4284,104.5563,255.5556,0.00025121,3.712e-05,0.0,0 STARLINK-4088,1 53155U 22083Z   23271.80726895  .00003712  00000-0  25121-3 0  9991,2 53155  53.2198 212.4284 0001144 104.5563 255.5556 15.08833286 67196,6917.901,95.438,540.557,538.975,0.0
53155.0,STARLINK-4088,PAYLOAD,2023-09-29 06:30:09,15.08851305,0.0001188,53.2185,210.345,103.1157,256.9968,0.0005242,8.067e-05,0.0,0 STARLINK-4088,1 53155U 22083Z   23272.27094425  .00008067  00000-0  52420-3 0  9990,2 53155  53.2185 210.3450 0001188 103.1157 256.9968 15.08851305 67268,6917.846,95.437,540.533,538.889,0.0
53155.0,STARLINK-4088,PAYLOAD,2023-09-30 03:10:09,15.08860727,0.0001089,53.2173,206.4784,96.6793,263.4323,0.00049289,7.57e-05,0.0,0 STARLINK-4088,1 53155U 22083Z   23273.13205954  .00007570  00000-0  49289-3 0  9994,2 53155  53.2173 206.4784 0001089  96.6793 263.4323 15.08860727 67393,6917.817,95.436,540.435,538.929,0.0
53155.0,STARLINK-4088,PAYLOAD,2023-09-30 12:42:28,15.08853154,0.0001274,53.2182,204.6961,71.5494,288.5636,0.00019036,2.744e-05,0.0,0 STARLINK-4088,1 53155U 22083Z   23273.52949802  .00002744  00000-0  19036-3 0  9999,2 53155  53.2182 204.6961 0001274  71.5494 288.5636 15.08853154 67454,6917.84,95.437,540.587,538.824,0.0
53155.0,STARLINK-4088,PAYLOAD,2023-10-01 01:25:34,15.08829368,7.78e-05,53.2166,202.3153,85.6945,274.4136,-0.00025272,-4.306e-05,0.0,0 STARLINK-4088,1 53155U 22083Z   23274.05942526 -.00004306  00000-0 -25272-3 0  9991,2 53155  53.2166 202.3153 0000778  85.6945 274.4136 15.08829368 67537,6917.913,95.438,540.316,539.24,0.0
53155.0,STARLINK-4088,PAYLOAD,2023-10-01 03:00:57,15.08842519,0.0001098,53.2166,202.0178,93.5516,266.5602,0.00022499,3.295e-05,0.0,0 STARLINK-4088,1 53155U 22083Z   23274.12566275  .00003295  00000-0  22499-3 0  9994,2 53155  53.2166 202.0178 0001098  93.5516 266.5602 15.08842519 67543,6917.873,95.437,540.497,538.978,0.0
53155.0,STARLINK-4088,PAYLOAD,2023-10-01 12:33:16,15.08840919,0.0001175,53.2179,200.2322,90.8341,269.2786,0.0001406,1.951e-05,0.0,0 STARLINK-4088,1 53155U 22083Z   23274.52310522  .00001951  00000-0  14060-3 0  9992,2 53155  53.2179 200.2322 0001175  90.8341 269.2786 15.08840919 67613,6917.878,95.437,540.555,538.93,0.0
53155.0,STARLINK-4088,PAYLOAD,2023-10-01 18:54:48,15.08839788,0.0001203,53.2166,199.0463,82.2872,277.8257,0.00017071,2.43e-05,0.0,0 STARLINK-4088,1 53155U 22083Z   23274.78806700  .00002430  00000-0  17071-3 0  9996,2 53155  53.2166 199.0463 0001203  82.2872 277.8257 15.08839788 67649,6917.881,95.438,540.578,538.914,0.0
